[{"OBJECT_NAME":"FLOCK 4G-1","OBJECT_ID":"2025-009BK","EPOCH":"2026-03-09T18:13:41.778912","MEAN_MOTION":15.27421081,"ECCENTRICITY":0.00031801,"INCLINATION":97.4059,"RA_OF_ASC_NODE":151.3158,"ARG_OF_PERICENTER":323.1401,"MEAN_ANOMALY":36.9619,"EPHEMERIS_TYPE":0,"CLASSIFICATION_TYPE":"U","NORAD_CAT_ID":62666,"ELEMENT_SET_NO":999,"REV_AT_EPOCH":6372,"BSTAR":0.00050653644,"MEAN_MOTION_DOT":0.00013534,"MEAN_MOTION_DDOT":0},{"OBJECT_NAME":"STARLINK-36408","OBJECT_ID":"2026-008AE","EPOCH":"2026-03-09T09:07:25.848192","MEAN_MOTION":15.27602816,"ECCENTRICITY":0.00022677,"INCLINATION":42.9933,"RA_OF_ASC_NODE":207.0577,"ARG_OF_PERICENTER":173.6156,"MEAN_ANOMALY":186.4724,"EPHEMERIS_TYPE":0,"CLASSIFICATION_TYPE":"U","NORAD_CAT_ID":67473,"ELEMENT_SET_NO":999,"REV_AT_EPOCH":952,"BSTAR":0.0012043824,"MEAN_MOTION_DOT":0.00033053,"MEAN_MOTION_DDOT":0}]
